<?xml version="1.0" encoding="UTF-8"?>
<gpx creator="Wikiloc - https://www.wikiloc.com" version="1.1" xmlns="http://www.topografix.com/GPX/1/1" xmlns:xsi="http://www.w3.org/2001/XMLSchema-instance" xsi:schemaLocation="http://www.topografix.com/GPX/1/1 http://www.topografix.com/GPX/1/1/gpx.xsd">
  <metadata>
    <name>Wikiloc - De Lupiana a Fuentes de la Alcarria por los Valles de los rí...</name>
    <link href="https://www.wikiloc.com/mountain-biking-trails/de-lupiana-a-fuentes-de-la-alcarria-por-los-valles-de-los-rios-matayeguas-y-ungria-79455384">
      <text>De Lupiana a Fuentes de la Alcarria por los Valles de los rí... on Wikiloc</text>
    </link>
    <time>2021-07-29T12:24:38Z</time>
  </metadata>
  <trk>
    <name>De Lupiana a Fuentes de la Alcarria por los Valles de los rí... - Wikiloc</name>
    <cmt></cmt>
    <desc></desc>
    <trkseg>
      <trkpt lat="40.609014" lon="-3.053916">
        <ele>762.973</ele>
        <time>2021-07-29T08:58:07Z</time>
      </trkpt>
      <trkpt lat="40.609467" lon="-3.053987">
        <ele>763.085</ele>
        <time>2021-07-29T08:58:18Z</time>
      </trkpt>
      <trkpt lat="40.610418" lon="-3.054615">
        <ele>764.913</ele>
        <time>2021-07-29T08:58:53Z</time>
      </trkpt>
      <trkpt lat="40.610216" lon="-3.056994">
        <ele>774.908</ele>
        <time>2021-07-29T08:59:56Z</time>
      </trkpt>
      <trkpt lat="40.611428" lon="-3.059529">
        <ele>776.014</ele>
        <time>2021-07-29T09:00:57Z</time>
      </trkpt>
      <trkpt lat="40.614109" lon="-3.061994">
        <ele>780.716</ele>
        <time>2021-07-29T09:02:17Z</time>
      </trkpt>
      <trkpt lat="40.615992" lon="-3.063247">
        <ele>780.011</ele>
        <time>2021-07-29T09:03:00Z</time>
      </trkpt>
      <trkpt lat="40.617576" lon="-3.063300">
        <ele>779.192</ele>
        <time>2021-07-29T09:03:29Z</time>
      </trkpt>
      <trkpt lat="40.618406" lon="-3.062971">
        <ele>779.432</ele>
        <time>2021-07-29T09:03:47Z</time>
      </trkpt>
      <trkpt lat="40.619987" lon="-3.063061">
        <ele>779.910</ele>
        <time>2021-07-29T09:04:20Z</time>
      </trkpt>
      <trkpt lat="40.620917" lon="-3.063405">
        <ele>781.075</ele>
        <time>2021-07-29T09:04:41Z</time>
      </trkpt>
      <trkpt lat="40.622198" lon="-3.063574">
        <ele>781.961</ele>
        <time>2021-07-29T09:05:10Z</time>
      </trkpt>
      <trkpt lat="40.623510" lon="-3.064508">
        <ele>781.866</ele>
        <time>2021-07-29T09:05:40Z</time>
      </trkpt>
      <trkpt lat="40.625861" lon="-3.064027">
        <ele>789.329</ele>
        <time>2021-07-29T09:06:42Z</time>
      </trkpt>
      <trkpt lat="40.626508" lon="-3.064039">
        <ele>789.421</ele>
        <time>2021-07-29T09:06:58Z</time>
      </trkpt>
      <trkpt lat="40.628509" lon="-3.064543">
        <ele>796.508</ele>
        <time>2021-07-29T09:07:54Z</time>
      </trkpt>
      <trkpt lat="40.629339" lon="-3.065259">
        <ele>795.243</ele>
        <time>2021-07-29T09:08:16Z</time>
      </trkpt>
      <trkpt lat="40.630657" lon="-3.065720">
        <ele>792.625</ele>
        <time>2021-07-29T09:08:42Z</time>
      </trkpt>
      <trkpt lat="40.632759" lon="-3.065487">
        <ele>793.910</ele>
        <time>2021-07-29T09:09:26Z</time>
      </trkpt>
      <trkpt lat="40.634201" lon="-3.065064">
        <ele>794.571</ele>
        <time>2021-07-29T09:09:56Z</time>
      </trkpt>
      <trkpt lat="40.637027" lon="-3.064528">
        <ele>794.311</ele>
        <time>2021-07-29T09:10:51Z</time>
      </trkpt>
      <trkpt lat="40.638007" lon="-3.064537">
        <ele>795.449</ele>
        <time>2021-07-29T09:11:11Z</time>
      </trkpt>
      <trkpt lat="40.638630" lon="-3.064288">
        <ele>795.774</ele>
        <time>2021-07-29T09:11:25Z</time>
      </trkpt>
      <trkpt lat="40.641178" lon="-3.063785">
        <ele>797.610</ele>
        <time>2021-07-29T09:12:20Z</time>
      </trkpt>
      <trkpt lat="40.641701" lon="-3.063543">
        <ele>799.463</ele>
        <time>2021-07-29T09:12:33Z</time>
      </trkpt>
      <trkpt lat="40.642152" lon="-3.063106">
        <ele>802.544</ele>
        <time>2021-07-29T09:12:49Z</time>
      </trkpt>
      <trkpt lat="40.643593" lon="-3.060818">
        <ele>803.118</ele>
        <time>2021-07-29T09:13:37Z</time>
      </trkpt>
      <trkpt lat="40.645799" lon="-3.060053">
        <ele>804.008</ele>
        <time>2021-07-29T09:14:25Z</time>
      </trkpt>
      <trkpt lat="40.646735" lon="-3.059077">
        <ele>803.873</ele>
        <time>2021-07-29T09:14:49Z</time>
      </trkpt>
      <trkpt lat="40.648744" lon="-3.057714">
        <ele>807.595</ele>
        <time>2021-07-29T09:15:41Z</time>
      </trkpt>
      <trkpt lat="40.649872" lon="-3.056602">
        <ele>808.180</ele>
        <time>2021-07-29T09:16:25Z</time>
      </trkpt>
      <trkpt lat="40.654039" lon="-3.053683">
        <ele>808.451</ele>
        <time>2021-07-29T09:18:09Z</time>
      </trkpt>
      <trkpt lat="40.655587" lon="-3.053749">
        <ele>809.561</ele>
        <time>2021-07-29T09:18:42Z</time>
      </trkpt>
      <trkpt lat="40.656302" lon="-3.054107">
        <ele>809.449</ele>
        <time>2021-07-29T09:18:56Z</time>
      </trkpt>
      <trkpt lat="40.658189" lon="-3.054534">
        <ele>815.624</ele>
        <time>2021-07-29T09:19:41Z</time>
      </trkpt>
      <trkpt lat="40.661642" lon="-3.054630">
        <ele>827.960</ele>
        <time>2021-07-29T09:21:21Z</time>
      </trkpt>
      <trkpt lat="40.662643" lon="-3.054232">
        <ele>824.977</ele>
        <time>2021-07-29T09:22:01Z</time>
      </trkpt>
      <trkpt lat="40.663478" lon="-3.053523">
        <ele>822.961</ele>
        <time>2021-07-29T09:22:19Z</time>
      </trkpt>
      <trkpt lat="40.664057" lon="-3.053251">
        <ele>822.827</ele>
        <time>2021-07-29T09:22:31Z</time>
      </trkpt>
      <trkpt lat="40.666463" lon="-3.052766">
        <ele>823.708</ele>
        <time>2021-07-29T09:23:24Z</time>
      </trkpt>
      <trkpt lat="40.668284" lon="-3.051674">
        <ele>824.054</ele>
        <time>2021-07-29T09:24:11Z</time>
      </trkpt>
      <trkpt lat="40.669286" lon="-3.050801">
        <ele>824.796</ele>
        <time>2021-07-29T09:24:40Z</time>
      </trkpt>
      <trkpt lat="40.669326" lon="-3.050309">
        <ele>826.151</ele>
        <time>2021-07-29T09:24:52Z</time>
      </trkpt>
      <trkpt lat="40.670116" lon="-3.048587">
        <ele>829.082</ele>
        <time>2021-07-29T09:25:44Z</time>
      </trkpt>
      <trkpt lat="40.670249" lon="-3.047857">
        <ele>829.552</ele>
        <time>2021-07-29T09:26:01Z</time>
      </trkpt>
      <trkpt lat="40.670722" lon="-3.047237">
        <ele>830.820</ele>
        <time>2021-07-29T09:26:18Z</time>
      </trkpt>
      <trkpt lat="40.670959" lon="-3.047299">
        <ele>830.625</ele>
        <time>2021-07-29T09:26:26Z</time>
      </trkpt>
      <trkpt lat="40.671180" lon="-3.047040">
        <ele>830.731</ele>
        <time>2021-07-29T09:26:34Z</time>
      </trkpt>
      <trkpt lat="40.671402" lon="-3.047126">
        <ele>829.432</ele>
        <time>2021-07-29T09:26:43Z</time>
      </trkpt>
      <trkpt lat="40.671545" lon="-3.046113">
        <ele>829.692</ele>
        <time>2021-07-29T09:27:31Z</time>
      </trkpt>
      <trkpt lat="40.672206" lon="-3.044796">
        <ele>832.411</ele>
        <time>2021-07-29T09:28:00Z</time>
      </trkpt>
      <trkpt lat="40.674568" lon="-3.043088">
        <ele>836.008</ele>
        <time>2021-07-29T09:29:05Z</time>
      </trkpt>
      <trkpt lat="40.675219" lon="-3.041274">
        <ele>837.270</ele>
        <time>2021-07-29T09:29:40Z</time>
      </trkpt>
      <trkpt lat="40.676360" lon="-3.040456">
        <ele>837.892</ele>
        <time>2021-07-29T09:30:10Z</time>
      </trkpt>
      <trkpt lat="40.679188" lon="-3.041088">
        <ele>840.367</ele>
        <time>2021-07-29T09:31:12Z</time>
      </trkpt>
      <trkpt lat="40.680996" lon="-3.041078">
        <ele>843.198</ele>
        <time>2021-07-29T09:31:57Z</time>
      </trkpt>
      <trkpt lat="40.683561" lon="-3.041586">
        <ele>844.418</ele>
        <time>2021-07-29T09:32:48Z</time>
      </trkpt>
      <trkpt lat="40.684881" lon="-3.041620">
        <ele>846.196</ele>
        <time>2021-07-29T09:33:33Z</time>
      </trkpt>
      <trkpt lat="40.685823" lon="-3.041220">
        <ele>847.821</ele>
        <time>2021-07-29T09:33:58Z</time>
      </trkpt>
      <trkpt lat="40.686424" lon="-3.040111">
        <ele>849.947</ele>
        <time>2021-07-29T09:34:24Z</time>
      </trkpt>
      <trkpt lat="40.686791" lon="-3.039726">
        <ele>850.755</ele>
        <time>2021-07-29T09:34:36Z</time>
      </trkpt>
      <trkpt lat="40.687070" lon="-3.039005">
        <ele>853.407</ele>
        <time>2021-07-29T09:34:54Z</time>
      </trkpt>
      <trkpt lat="40.687185" lon="-3.037641">
        <ele>853.917</ele>
        <time>2021-07-29T09:35:51Z</time>
      </trkpt>
      <trkpt lat="40.687831" lon="-3.036143">
        <ele>855.308</ele>
        <time>2021-07-29T09:36:22Z</time>
      </trkpt>
      <trkpt lat="40.688560" lon="-3.035428">
        <ele>855.342</ele>
        <time>2021-07-29T09:36:43Z</time>
      </trkpt>
      <trkpt lat="40.689677" lon="-3.034656">
        <ele>855.744</ele>
        <time>2021-07-29T09:38:23Z</time>
      </trkpt>
      <trkpt lat="40.690749" lon="-3.033343">
        <ele>858.059</ele>
        <time>2021-07-29T09:40:24Z</time>
      </trkpt>
      <trkpt lat="40.691267" lon="-3.032949">
        <ele>860.250</ele>
        <time>2021-07-29T09:40:40Z</time>
      </trkpt>
      <trkpt lat="40.691939" lon="-3.032638">
        <ele>861.880</ele>
        <time>2021-07-29T09:40:58Z</time>
      </trkpt>
      <trkpt lat="40.693073" lon="-3.032971">
        <ele>860.478</ele>
        <time>2021-07-29T09:41:22Z</time>
      </trkpt>
      <trkpt lat="40.693721" lon="-3.033401">
        <ele>861.453</ele>
        <time>2021-07-29T09:41:36Z</time>
      </trkpt>
      <trkpt lat="40.693393" lon="-3.033242">
        <ele>860.839</ele>
        <time>2021-07-29T09:42:33Z</time>
      </trkpt>
      <trkpt lat="40.693762" lon="-3.033460">
        <ele>861.235</ele>
        <time>2021-07-29T09:44:26Z</time>
      </trkpt>
      <trkpt lat="40.694540" lon="-3.034635">
        <ele>860.886</ele>
        <time>2021-07-29T09:44:58Z</time>
      </trkpt>
      <trkpt lat="40.695050" lon="-3.035097">
        <ele>861.714</ele>
        <time>2021-07-29T09:45:14Z</time>
      </trkpt>
      <trkpt lat="40.695726" lon="-3.035467">
        <ele>863.208</ele>
        <time>2021-07-29T09:45:33Z</time>
      </trkpt>
      <trkpt lat="40.697365" lon="-3.035675">
        <ele>866.580</ele>
        <time>2021-07-29T09:46:15Z</time>
      </trkpt>
      <trkpt lat="40.699069" lon="-3.034728">
        <ele>868.282</ele>
        <time>2021-07-29T09:47:00Z</time>
      </trkpt>
      <trkpt lat="40.699806" lon="-3.034037">
        <ele>868.637</ele>
        <time>2021-07-29T09:47:21Z</time>
      </trkpt>
      <trkpt lat="40.700636" lon="-3.032782">
        <ele>870.568</ele>
        <time>2021-07-29T09:47:51Z</time>
      </trkpt>
      <trkpt lat="40.702398" lon="-3.031753">
        <ele>870.278</ele>
        <time>2021-07-29T09:48:34Z</time>
      </trkpt>
      <trkpt lat="40.702915" lon="-3.031049">
        <ele>872.646</ele>
        <time>2021-07-29T09:48:53Z</time>
      </trkpt>
      <trkpt lat="40.704023" lon="-3.030272">
        <ele>874.371</ele>
        <time>2021-07-29T09:49:22Z</time>
      </trkpt>
      <trkpt lat="40.705468" lon="-3.029442">
        <ele>875.667</ele>
        <time>2021-07-29T09:49:57Z</time>
      </trkpt>
      <trkpt lat="40.707024" lon="-3.029241">
        <ele>876.033</ele>
        <time>2021-07-29T09:50:28Z</time>
      </trkpt>
      <trkpt lat="40.708556" lon="-3.028515">
        <ele>877.323</ele>
        <time>2021-07-29T09:51:00Z</time>
      </trkpt>
      <trkpt lat="40.708792" lon="-3.028176">
        <ele>878.115</ele>
        <time>2021-07-29T09:51:08Z</time>
      </trkpt>
      <trkpt lat="40.709034" lon="-3.026933">
        <ele>881.408</ele>
        <time>2021-07-29T09:51:31Z</time>
      </trkpt>
      <trkpt lat="40.709754" lon="-3.025621">
        <ele>882.920</ele>
        <time>2021-07-29T09:51:57Z</time>
      </trkpt>
      <trkpt lat="40.709884" lon="-3.024758">
        <ele>884.112</ele>
        <time>2021-07-29T09:52:12Z</time>
      </trkpt>
      <trkpt lat="40.710809" lon="-3.022217">
        <ele>886.317</ele>
        <time>2021-07-29T09:53:03Z</time>
      </trkpt>
      <trkpt lat="40.711991" lon="-3.020497">
        <ele>891.658</ele>
        <time>2021-07-29T09:53:49Z</time>
      </trkpt>
      <trkpt lat="40.712462" lon="-3.018912">
        <ele>896.118</ele>
        <time>2021-07-29T09:54:51Z</time>
      </trkpt>
      <trkpt lat="40.712958" lon="-3.018756">
        <ele>892.626</ele>
        <time>2021-07-29T09:55:05Z</time>
      </trkpt>
      <trkpt lat="40.713448" lon="-3.017342">
        <ele>894.611</ele>
        <time>2021-07-29T09:56:01Z</time>
      </trkpt>
      <trkpt lat="40.713751" lon="-3.016958">
        <ele>895.897</ele>
        <time>2021-07-29T09:56:12Z</time>
      </trkpt>
      <trkpt lat="40.714719" lon="-3.016437">
        <ele>896.364</ele>
        <time>2021-07-29T09:56:37Z</time>
      </trkpt>
      <trkpt lat="40.715470" lon="-3.016824">
        <ele>894.706</ele>
        <time>2021-07-29T09:56:57Z</time>
      </trkpt>
      <trkpt lat="40.715595" lon="-3.016712">
        <ele>895.116</ele>
        <time>2021-07-29T09:57:01Z</time>
      </trkpt>
      <trkpt lat="40.716156" lon="-3.014871">
        <ele>899.108</ele>
        <time>2021-07-29T09:57:41Z</time>
      </trkpt>
      <trkpt lat="40.715940" lon="-3.014105">
        <ele>899.243</ele>
        <time>2021-07-29T09:57:57Z</time>
      </trkpt>
      <trkpt lat="40.716051" lon="-3.013717">
        <ele>898.915</ele>
        <time>2021-07-29T09:58:04Z</time>
      </trkpt>
      <trkpt lat="40.716860" lon="-3.013197">
        <ele>900.550</ele>
        <time>2021-07-29T09:58:25Z</time>
      </trkpt>
      <trkpt lat="40.717799" lon="-3.011638">
        <ele>902.211</ele>
        <time>2021-07-29T09:59:01Z</time>
      </trkpt>
      <trkpt lat="40.718608" lon="-3.011150">
        <ele>905.531</ele>
        <time>2021-07-29T09:59:25Z</time>
      </trkpt>
      <trkpt lat="40.719594" lon="-3.011024">
        <ele>907.679</ele>
        <time>2021-07-29T09:59:51Z</time>
      </trkpt>
      <trkpt lat="40.721191" lon="-3.011318">
        <ele>914.014</ele>
        <time>2021-07-29T10:00:37Z</time>
      </trkpt>
      <trkpt lat="40.721887" lon="-3.011689">
        <ele>917.760</ele>
        <time>2021-07-29T10:01:01Z</time>
      </trkpt>
      <trkpt lat="40.722391" lon="-3.011457">
        <ele>920.763</ele>
        <time>2021-07-29T10:01:19Z</time>
      </trkpt>
      <trkpt lat="40.722711" lon="-3.010719">
        <ele>919.444</ele>
        <time>2021-07-29T10:01:34Z</time>
      </trkpt>
      <trkpt lat="40.722732" lon="-3.010023">
        <ele>917.718</ele>
        <time>2021-07-29T10:01:46Z</time>
      </trkpt>
      <trkpt lat="40.722957" lon="-3.009304">
        <ele>916.908</ele>
        <time>2021-07-29T10:01:58Z</time>
      </trkpt>
      <trkpt lat="40.722839" lon="-3.008385">
        <ele>916.853</ele>
        <time>2021-07-29T10:02:13Z</time>
      </trkpt>
      <trkpt lat="40.722185" lon="-3.007568">
        <ele>914.545</ele>
        <time>2021-07-29T10:02:31Z</time>
      </trkpt>
      <trkpt lat="40.721115" lon="-3.006747">
        <ele>914.870</ele>
        <time>2021-07-29T10:03:02Z</time>
      </trkpt>
      <trkpt lat="40.720902" lon="-3.006259">
        <ele>915.651</ele>
        <time>2021-07-29T10:03:22Z</time>
      </trkpt>
      <trkpt lat="40.720926" lon="-3.005563">
        <ele>916.731</ele>
        <time>2021-07-29T10:03:48Z</time>
      </trkpt>
      <trkpt lat="40.721408" lon="-3.004941">
        <ele>917.519</ele>
        <time>2021-07-29T10:04:06Z</time>
      </trkpt>
      <trkpt lat="40.722227" lon="-3.004799">
        <ele>918.284</ele>
        <time>2021-07-29T10:04:27Z</time>
      </trkpt>
      <trkpt lat="40.722896" lon="-3.004198">
        <ele>919.950</ele>
        <time>2021-07-29T10:04:49Z</time>
      </trkpt>
      <trkpt lat="40.722759" lon="-3.002395">
        <ele>922.547</ele>
        <time>2021-07-29T10:05:26Z</time>
      </trkpt>
      <trkpt lat="40.722858" lon="-3.001900">
        <ele>923.729</ele>
        <time>2021-07-29T10:05:36Z</time>
      </trkpt>
      <trkpt lat="40.723370" lon="-3.001365">
        <ele>924.321</ele>
        <time>2021-07-29T10:05:53Z</time>
      </trkpt>
      <trkpt lat="40.724103" lon="-3.000085">
        <ele>927.208</ele>
        <time>2021-07-29T10:06:27Z</time>
      </trkpt>
      <trkpt lat="40.724498" lon="-2.999654">
        <ele>929.131</ele>
        <time>2021-07-29T10:06:43Z</time>
      </trkpt>
      <trkpt lat="40.724816" lon="-2.998604">
        <ele>931.833</ele>
        <time>2021-07-29T10:07:09Z</time>
      </trkpt>
      <trkpt lat="40.725062" lon="-2.998507">
        <ele>932.668</ele>
        <time>2021-07-29T10:07:17Z</time>
      </trkpt>
      <trkpt lat="40.725819" lon="-2.999253">
        <ele>934.339</ele>
        <time>2021-07-29T10:07:47Z</time>
      </trkpt>
      <trkpt lat="40.726188" lon="-3.000018">
        <ele>936.529</ele>
        <time>2021-07-29T10:08:09Z</time>
      </trkpt>
      <trkpt lat="40.726484" lon="-2.999994">
        <ele>936.747</ele>
        <time>2021-07-29T10:08:17Z</time>
      </trkpt>
      <trkpt lat="40.726878" lon="-2.999718">
        <ele>938.492</ele>
        <time>2021-07-29T10:08:31Z</time>
      </trkpt>
      <trkpt lat="40.727240" lon="-2.997154">
        <ele>942.718</ele>
        <time>2021-07-29T10:09:29Z</time>
      </trkpt>
      <trkpt lat="40.727207" lon="-2.996263">
        <ele>945.788</ele>
        <time>2021-07-29T10:09:51Z</time>
      </trkpt>
      <trkpt lat="40.727441" lon="-2.995612">
        <ele>946.824</ele>
        <time>2021-07-29T10:10:09Z</time>
      </trkpt>
      <trkpt lat="40.727673" lon="-2.995601">
        <ele>947.326</ele>
        <time>2021-07-29T10:10:17Z</time>
      </trkpt>
      <trkpt lat="40.728240" lon="-2.996274">
        <ele>949.808</ele>
        <time>2021-07-29T10:10:43Z</time>
      </trkpt>
      <trkpt lat="40.728747" lon="-2.998190">
        <ele>952.995</ele>
        <time>2021-07-29T10:11:29Z</time>
      </trkpt>
      <trkpt lat="40.729002" lon="-2.998581">
        <ele>953.517</ele>
        <time>2021-07-29T10:11:41Z</time>
      </trkpt>
      <trkpt lat="40.728979" lon="-2.998876">
        <ele>954.162</ele>
        <time>2021-07-29T10:11:49Z</time>
      </trkpt>
      <trkpt lat="40.727395" lon="-3.003481">
        <ele>968.163</ele>
        <time>2021-07-29T10:13:48Z</time>
      </trkpt>
      <trkpt lat="40.726406" lon="-3.005756">
        <ele>965.713</ele>
        <time>2021-07-29T10:14:28Z</time>
      </trkpt>
      <trkpt lat="40.726779" lon="-3.008176">
        <ele>955.931</ele>
        <time>2021-07-29T10:15:01Z</time>
      </trkpt>
      <trkpt lat="40.725865" lon="-3.008737">
        <ele>953.326</ele>
        <time>2021-07-29T10:15:23Z</time>
      </trkpt>
      <trkpt lat="40.725072" lon="-3.009548">
        <ele>951.832</ele>
        <time>2021-07-29T10:15:44Z</time>
      </trkpt>
      <trkpt lat="40.725000" lon="-3.009875">
        <ele>951.569</ele>
        <time>2021-07-29T10:15:50Z</time>
      </trkpt>
      <trkpt lat="40.725712" lon="-3.011542">
        <ele>958.704</ele>
        <time>2021-07-29T10:16:34Z</time>
      </trkpt>
      <trkpt lat="40.727160" lon="-3.012739">
        <ele>970.124</ele>
        <time>2021-07-29T10:17:36Z</time>
      </trkpt>
      <trkpt lat="40.727992" lon="-3.011381">
        <ele>971.308</ele>
        <time>2021-07-29T10:18:50Z</time>
      </trkpt>
      <trkpt lat="40.730214" lon="-3.006984">
        <ele>973.163</ele>
        <time>2021-07-29T10:20:07Z</time>
      </trkpt>
      <trkpt lat="40.730835" lon="-3.005117">
        <ele>977.665</ele>
        <time>2021-07-29T10:20:53Z</time>
      </trkpt>
      <trkpt lat="40.731069" lon="-3.004954">
        <ele>977.410</ele>
        <time>2021-07-29T10:20:59Z</time>
      </trkpt>
      <trkpt lat="40.732060" lon="-3.004902">
        <ele>970.741</ele>
        <time>2021-07-29T10:21:22Z</time>
      </trkpt>
      <trkpt lat="40.732239" lon="-3.004737">
        <ele>970.221</ele>
        <time>2021-07-29T10:21:27Z</time>
      </trkpt>
      <trkpt lat="40.733161" lon="-3.002955">
        <ele>966.389</ele>
        <time>2021-07-29T10:21:54Z</time>
      </trkpt>
      <trkpt lat="40.733986" lon="-3.000819">
        <ele>962.374</ele>
        <time>2021-07-29T10:22:23Z</time>
      </trkpt>
      <trkpt lat="40.737983" lon="-2.997050">
        <ele>967.870</ele>
        <time>2021-07-29T10:24:16Z</time>
      </trkpt>
      <trkpt lat="40.741329" lon="-2.995771">
        <ele>968.344</ele>
        <time>2021-07-29T10:25:19Z</time>
      </trkpt>
      <trkpt lat="40.742807" lon="-2.994200">
        <ele>977.005</ele>
        <time>2021-07-29T10:26:09Z</time>
      </trkpt>
      <trkpt lat="40.743240" lon="-2.994138">
        <ele>980.215</ele>
        <time>2021-07-29T10:26:25Z</time>
      </trkpt>
      <trkpt lat="40.744233" lon="-2.994798">
        <ele>983.408</ele>
        <time>2021-07-29T10:26:59Z</time>
      </trkpt>
      <trkpt lat="40.746459" lon="-2.993529">
        <ele>983.111</ele>
        <time>2021-07-29T10:27:57Z</time>
      </trkpt>
      <trkpt lat="40.747157" lon="-2.992644">
        <ele>983.573</ele>
        <time>2021-07-29T10:28:19Z</time>
      </trkpt>
      <trkpt lat="40.747508" lon="-2.989854">
        <ele>981.798</ele>
        <time>2021-07-29T10:29:02Z</time>
      </trkpt>
      <trkpt lat="40.748271" lon="-2.988484">
        <ele>979.929</ele>
        <time>2021-07-29T10:29:25Z</time>
      </trkpt>
      <trkpt lat="40.749168" lon="-2.987817">
        <ele>978.419</ele>
        <time>2021-07-29T10:29:43Z</time>
      </trkpt>
      <trkpt lat="40.749610" lon="-2.987282">
        <ele>978.057</ele>
        <time>2021-07-29T10:29:53Z</time>
      </trkpt>
      <trkpt lat="40.751509" lon="-2.986513">
        <ele>983.092</ele>
        <time>2021-07-29T10:31:13Z</time>
      </trkpt>
      <trkpt lat="40.751384" lon="-2.983023">
        <ele>988.778</ele>
        <time>2021-07-29T10:32:19Z</time>
      </trkpt>
      <trkpt lat="40.750703" lon="-2.982136">
        <ele>990.277</ele>
        <time>2021-07-29T10:32:44Z</time>
      </trkpt>
      <trkpt lat="40.750518" lon="-2.981545">
        <ele>988.761</ele>
        <time>2021-07-29T10:32:54Z</time>
      </trkpt>
      <trkpt lat="40.750630" lon="-2.981177">
        <ele>986.727</ele>
        <time>2021-07-29T10:33:00Z</time>
      </trkpt>
      <trkpt lat="40.751289" lon="-2.980935">
        <ele>985.008</ele>
        <time>2021-07-29T10:33:14Z</time>
      </trkpt>
      <trkpt lat="40.751207" lon="-2.978127">
        <ele>982.734</ele>
        <time>2021-07-29T10:33:58Z</time>
      </trkpt>
      <trkpt lat="40.751793" lon="-2.975024">
        <ele>984.886</ele>
        <time>2021-07-29T10:34:47Z</time>
      </trkpt>
      <trkpt lat="40.751691" lon="-2.952553">
        <ele>985.831</ele>
        <time>2021-07-29T10:40:32Z</time>
      </trkpt>
      <trkpt lat="40.752535" lon="-2.948016">
        <ele>986.542</ele>
        <time>2021-07-29T10:41:45Z</time>
      </trkpt>
      <trkpt lat="40.752622" lon="-2.947870">
        <ele>985.912</ele>
        <time>2021-07-29T10:41:49Z</time>
      </trkpt>
      <trkpt lat="40.752742" lon="-2.947923">
        <ele>984.230</ele>
        <time>2021-07-29T10:42:09Z</time>
      </trkpt>
      <trkpt lat="40.752526" lon="-2.947166">
        <ele>985.215</ele>
        <time>2021-07-29T10:43:37Z</time>
      </trkpt>
      <trkpt lat="40.752490" lon="-2.945718">
        <ele>986.131</ele>
        <time>2021-07-29T10:44:05Z</time>
      </trkpt>
      <trkpt lat="40.752318" lon="-2.945214">
        <ele>983.897</ele>
        <time>2021-07-29T10:44:23Z</time>
      </trkpt>
      <trkpt lat="40.752771" lon="-2.944800">
        <ele>981.923</ele>
        <time>2021-07-29T10:45:04Z</time>
      </trkpt>
      <trkpt lat="40.753187" lon="-2.943784">
        <ele>982.925</ele>
        <time>2021-07-29T10:45:45Z</time>
      </trkpt>
      <trkpt lat="40.753097" lon="-2.943286">
        <ele>984.808</ele>
        <time>2021-07-29T10:46:13Z</time>
      </trkpt>
      <trkpt lat="40.753224" lon="-2.942368">
        <ele>984.366</ele>
        <time>2021-07-29T10:46:36Z</time>
      </trkpt>
      <trkpt lat="40.753416" lon="-2.942285">
        <ele>984.598</ele>
        <time>2021-07-29T10:46:53Z</time>
      </trkpt>
      <trkpt lat="40.753540" lon="-2.941950">
        <ele>978.373</ele>
        <time>2021-07-29T10:48:09Z</time>
      </trkpt>
      <trkpt lat="40.753824" lon="-2.942058">
        <ele>976.894</ele>
        <time>2021-07-29T10:48:32Z</time>
      </trkpt>
      <trkpt lat="40.753896" lon="-2.941961">
        <ele>975.054</ele>
        <time>2021-07-29T10:49:07Z</time>
      </trkpt>
      <trkpt lat="40.753083" lon="-2.941297">
        <ele>964.892</ele>
        <time>2021-07-29T10:49:45Z</time>
      </trkpt>
      <trkpt lat="40.753069" lon="-2.941108">
        <ele>958.547</ele>
        <time>2021-07-29T10:50:02Z</time>
      </trkpt>
      <trkpt lat="40.754579" lon="-2.941056">
        <ele>937.313</ele>
        <time>2021-07-29T10:51:09Z</time>
      </trkpt>
      <trkpt lat="40.754726" lon="-2.940784">
        <ele>932.513</ele>
        <time>2021-07-29T10:51:20Z</time>
      </trkpt>
      <trkpt lat="40.754297" lon="-2.940643">
        <ele>922.843</ele>
        <time>2021-07-29T10:51:48Z</time>
      </trkpt>
      <trkpt lat="40.754502" lon="-2.940496">
        <ele>918.107</ele>
        <time>2021-07-29T10:52:01Z</time>
      </trkpt>
      <trkpt lat="40.754713" lon="-2.939980">
        <ele>908.008</ele>
        <time>2021-07-29T10:52:58Z</time>
      </trkpt>
      <trkpt lat="40.754581" lon="-2.938734">
        <ele>897.468</ele>
        <time>2021-07-29T10:56:53Z</time>
      </trkpt>
      <trkpt lat="40.753758" lon="-2.938843">
        <ele>897.720</ele>
        <time>2021-07-29T10:57:16Z</time>
      </trkpt>
      <trkpt lat="40.752488" lon="-2.938598">
        <ele>899.695</ele>
        <time>2021-07-29T10:57:49Z</time>
      </trkpt>
      <trkpt lat="40.751661" lon="-2.938787">
        <ele>899.936</ele>
        <time>2021-07-29T10:58:10Z</time>
      </trkpt>
      <trkpt lat="40.751248" lon="-2.939311">
        <ele>898.516</ele>
        <time>2021-07-29T10:58:20Z</time>
      </trkpt>
      <trkpt lat="40.751065" lon="-2.939993">
        <ele>897.274</ele>
        <time>2021-07-29T10:58:29Z</time>
      </trkpt>
      <trkpt lat="40.751089" lon="-2.941389">
        <ele>895.999</ele>
        <time>2021-07-29T10:58:47Z</time>
      </trkpt>
      <trkpt lat="40.750921" lon="-2.942758">
        <ele>895.545</ele>
        <time>2021-07-29T10:59:06Z</time>
      </trkpt>
      <trkpt lat="40.750467" lon="-2.943295">
        <ele>893.627</ele>
        <time>2021-07-29T10:59:16Z</time>
      </trkpt>
      <trkpt lat="40.749853" lon="-2.943372">
        <ele>893.168</ele>
        <time>2021-07-29T10:59:26Z</time>
      </trkpt>
      <trkpt lat="40.749214" lon="-2.943216">
        <ele>892.914</ele>
        <time>2021-07-29T10:59:36Z</time>
      </trkpt>
      <trkpt lat="40.747913" lon="-2.942027">
        <ele>891.608</ele>
        <time>2021-07-29T11:00:03Z</time>
      </trkpt>
      <trkpt lat="40.747561" lon="-2.941874">
        <ele>891.859</ele>
        <time>2021-07-29T11:00:11Z</time>
      </trkpt>
      <trkpt lat="40.747187" lon="-2.941905">
        <ele>891.471</ele>
        <time>2021-07-29T11:00:24Z</time>
      </trkpt>
      <trkpt lat="40.747153" lon="-2.942716">
        <ele>890.396</ele>
        <time>2021-07-29T11:00:53Z</time>
      </trkpt>
      <trkpt lat="40.746717" lon="-2.943162">
        <ele>891.597</ele>
        <time>2021-07-29T11:01:07Z</time>
      </trkpt>
      <trkpt lat="40.746518" lon="-2.943699">
        <ele>891.747</ele>
        <time>2021-07-29T11:01:16Z</time>
      </trkpt>
      <trkpt lat="40.746897" lon="-2.945811">
        <ele>890.345</ele>
        <time>2021-07-29T11:01:49Z</time>
      </trkpt>
      <trkpt lat="40.746705" lon="-2.947121">
        <ele>889.750</ele>
        <time>2021-07-29T11:02:09Z</time>
      </trkpt>
      <trkpt lat="40.746179" lon="-2.947916">
        <ele>888.476</ele>
        <time>2021-07-29T11:02:31Z</time>
      </trkpt>
      <trkpt lat="40.745190" lon="-2.948511">
        <ele>887.673</ele>
        <time>2021-07-29T11:03:20Z</time>
      </trkpt>
      <trkpt lat="40.744683" lon="-2.949332">
        <ele>885.585</ele>
        <time>2021-07-29T11:03:34Z</time>
      </trkpt>
      <trkpt lat="40.744350" lon="-2.950360">
        <ele>884.213</ele>
        <time>2021-07-29T11:03:48Z</time>
      </trkpt>
      <trkpt lat="40.743702" lon="-2.951596">
        <ele>883.208</ele>
        <time>2021-07-29T11:04:08Z</time>
      </trkpt>
      <trkpt lat="40.743264" lon="-2.953317">
        <ele>887.154</ele>
        <time>2021-07-29T11:04:41Z</time>
      </trkpt>
      <trkpt lat="40.742873" lon="-2.953262">
        <ele>886.746</ele>
        <time>2021-07-29T11:05:03Z</time>
      </trkpt>
      <trkpt lat="40.742318" lon="-2.952790">
        <ele>886.651</ele>
        <time>2021-07-29T11:05:18Z</time>
      </trkpt>
      <trkpt lat="40.741913" lon="-2.952902">
        <ele>885.642</ele>
        <time>2021-07-29T11:05:28Z</time>
      </trkpt>
      <trkpt lat="40.741676" lon="-2.952704">
        <ele>885.342</ele>
        <time>2021-07-29T11:05:35Z</time>
      </trkpt>
      <trkpt lat="40.741277" lon="-2.951858">
        <ele>884.370</ele>
        <time>2021-07-29T11:05:49Z</time>
      </trkpt>
      <trkpt lat="40.740190" lon="-2.947951">
        <ele>880.595</ele>
        <time>2021-07-29T11:06:54Z</time>
      </trkpt>
      <trkpt lat="40.739186" lon="-2.948764">
        <ele>881.611</ele>
        <time>2021-07-29T11:07:17Z</time>
      </trkpt>
      <trkpt lat="40.737318" lon="-2.949639">
        <ele>877.572</ele>
        <time>2021-07-29T11:08:41Z</time>
      </trkpt>
      <trkpt lat="40.736405" lon="-2.951785">
        <ele>875.913</ele>
        <time>2021-07-29T11:09:18Z</time>
      </trkpt>
      <trkpt lat="40.735794" lon="-2.952038">
        <ele>874.314</ele>
        <time>2021-07-29T11:09:28Z</time>
      </trkpt>
      <trkpt lat="40.735556" lon="-2.952391">
        <ele>873.308</ele>
        <time>2021-07-29T11:09:35Z</time>
      </trkpt>
      <trkpt lat="40.735186" lon="-2.952598">
        <ele>873.674</ele>
        <time>2021-07-29T11:09:43Z</time>
      </trkpt>
      <trkpt lat="40.734667" lon="-2.952656">
        <ele>874.416</ele>
        <time>2021-07-29T11:09:54Z</time>
      </trkpt>
      <trkpt lat="40.734002" lon="-2.952475">
        <ele>874.131</ele>
        <time>2021-07-29T11:10:08Z</time>
      </trkpt>
      <trkpt lat="40.731941" lon="-2.951214">
        <ele>874.732</ele>
        <time>2021-07-29T11:10:53Z</time>
      </trkpt>
      <trkpt lat="40.730726" lon="-2.951127">
        <ele>875.322</ele>
        <time>2021-07-29T11:11:17Z</time>
      </trkpt>
      <trkpt lat="40.729851" lon="-2.951504">
        <ele>873.020</ele>
        <time>2021-07-29T11:11:37Z</time>
      </trkpt>
      <trkpt lat="40.729547" lon="-2.950722">
        <ele>870.945</ele>
        <time>2021-07-29T11:11:51Z</time>
      </trkpt>
      <trkpt lat="40.728451" lon="-2.950636">
        <ele>874.161</ele>
        <time>2021-07-29T11:12:18Z</time>
      </trkpt>
      <trkpt lat="40.727571" lon="-2.951909">
        <ele>875.714</ele>
        <time>2021-07-29T11:13:24Z</time>
      </trkpt>
      <trkpt lat="40.726426" lon="-2.953191">
        <ele>875.554</ele>
        <time>2021-07-29T11:13:56Z</time>
      </trkpt>
      <trkpt lat="40.725893" lon="-2.955884">
        <ele>876.109</ele>
        <time>2021-07-29T11:14:38Z</time>
      </trkpt>
      <trkpt lat="40.723907" lon="-2.956915">
        <ele>872.208</ele>
        <time>2021-07-29T11:15:15Z</time>
      </trkpt>
      <trkpt lat="40.723176" lon="-2.957040">
        <ele>871.468</ele>
        <time>2021-07-29T11:15:27Z</time>
      </trkpt>
      <trkpt lat="40.722735" lon="-2.957302">
        <ele>871.980</ele>
        <time>2021-07-29T11:15:35Z</time>
      </trkpt>
      <trkpt lat="40.721776" lon="-2.958731">
        <ele>869.495</ele>
        <time>2021-07-29T11:15:58Z</time>
      </trkpt>
      <trkpt lat="40.721487" lon="-2.959538">
        <ele>867.756</ele>
        <time>2021-07-29T11:16:09Z</time>
      </trkpt>
      <trkpt lat="40.721274" lon="-2.959554">
        <ele>866.526</ele>
        <time>2021-07-29T11:16:13Z</time>
      </trkpt>
      <trkpt lat="40.720778" lon="-2.959037">
        <ele>866.544</ele>
        <time>2021-07-29T11:17:16Z</time>
      </trkpt>
      <trkpt lat="40.719726" lon="-2.958422">
        <ele>863.979</ele>
        <time>2021-07-29T11:17:40Z</time>
      </trkpt>
      <trkpt lat="40.718280" lon="-2.958122">
        <ele>863.965</ele>
        <time>2021-07-29T11:18:08Z</time>
      </trkpt>
      <trkpt lat="40.717392" lon="-2.958493">
        <ele>861.744</ele>
        <time>2021-07-29T11:18:27Z</time>
      </trkpt>
      <trkpt lat="40.716752" lon="-2.959183">
        <ele>859.105</ele>
        <time>2021-07-29T11:18:42Z</time>
      </trkpt>
      <trkpt lat="40.715432" lon="-2.960157">
        <ele>858.215</ele>
        <time>2021-07-29T11:19:11Z</time>
      </trkpt>
      <trkpt lat="40.713622" lon="-2.960646">
        <ele>855.608</ele>
        <time>2021-07-29T11:19:46Z</time>
      </trkpt>
      <trkpt lat="40.712640" lon="-2.960725">
        <ele>853.921</ele>
        <time>2021-07-29T11:20:08Z</time>
      </trkpt>
      <trkpt lat="40.712128" lon="-2.960954">
        <ele>853.283</ele>
        <time>2021-07-29T11:20:24Z</time>
      </trkpt>
      <trkpt lat="40.710735" lon="-2.962424">
        <ele>854.688</ele>
        <time>2021-07-29T11:21:22Z</time>
      </trkpt>
      <trkpt lat="40.709579" lon="-2.963216">
        <ele>855.589</ele>
        <time>2021-07-29T11:22:43Z</time>
      </trkpt>
      <trkpt lat="40.708669" lon="-2.965357">
        <ele>848.629</ele>
        <time>2021-07-29T11:23:54Z</time>
      </trkpt>
      <trkpt lat="40.707779" lon="-2.966391">
        <ele>864.697</ele>
        <time>2021-07-29T11:24:55Z</time>
      </trkpt>
      <trkpt lat="40.707359" lon="-2.966509">
        <ele>866.142</ele>
        <time>2021-07-29T11:25:15Z</time>
      </trkpt>
      <trkpt lat="40.706540" lon="-2.966080">
        <ele>861.228</ele>
        <time>2021-07-29T11:25:37Z</time>
      </trkpt>
      <trkpt lat="40.706307" lon="-2.966095">
        <ele>858.365</ele>
        <time>2021-07-29T11:25:46Z</time>
      </trkpt>
      <trkpt lat="40.706352" lon="-2.966858">
        <ele>852.368</ele>
        <time>2021-07-29T11:26:11Z</time>
      </trkpt>
      <trkpt lat="40.705954" lon="-2.967232">
        <ele>848.514</ele>
        <time>2021-07-29T11:26:33Z</time>
      </trkpt>
      <trkpt lat="40.704801" lon="-2.967841">
        <ele>850.008</ele>
        <time>2021-07-29T11:27:18Z</time>
      </trkpt>
      <trkpt lat="40.704028" lon="-2.969569">
        <ele>860.153</ele>
        <time>2021-07-29T11:28:22Z</time>
      </trkpt>
      <trkpt lat="40.703858" lon="-2.969707">
        <ele>858.675</ele>
        <time>2021-07-29T11:28:58Z</time>
      </trkpt>
      <trkpt lat="40.703515" lon="-2.969536">
        <ele>854.580</ele>
        <time>2021-07-29T11:29:10Z</time>
      </trkpt>
      <trkpt lat="40.702852" lon="-2.969543">
        <ele>845.411</ele>
        <time>2021-07-29T11:29:29Z</time>
      </trkpt>
      <trkpt lat="40.701768" lon="-2.970115">
        <ele>840.781</ele>
        <time>2021-07-29T11:29:46Z</time>
      </trkpt>
      <trkpt lat="40.701400" lon="-2.970760">
        <ele>839.999</ele>
        <time>2021-07-29T11:29:56Z</time>
      </trkpt>
      <trkpt lat="40.701197" lon="-2.971915">
        <ele>839.454</ele>
        <time>2021-07-29T11:30:12Z</time>
      </trkpt>
      <trkpt lat="40.700845" lon="-2.972708">
        <ele>837.490</ele>
        <time>2021-07-29T11:30:24Z</time>
      </trkpt>
      <trkpt lat="40.699891" lon="-2.973466">
        <ele>836.491</ele>
        <time>2021-07-29T11:30:42Z</time>
      </trkpt>
      <trkpt lat="40.698485" lon="-2.975000">
        <ele>834.381</ele>
        <time>2021-07-29T11:31:13Z</time>
      </trkpt>
      <trkpt lat="40.697164" lon="-2.976058">
        <ele>833.819</ele>
        <time>2021-07-29T11:31:39Z</time>
      </trkpt>
      <trkpt lat="40.696660" lon="-2.976708">
        <ele>833.008</ele>
        <time>2021-07-29T11:31:50Z</time>
      </trkpt>
      <trkpt lat="40.695838" lon="-2.976790">
        <ele>831.736</ele>
        <time>2021-07-29T11:32:03Z</time>
      </trkpt>
      <trkpt lat="40.695457" lon="-2.976663">
        <ele>829.778</ele>
        <time>2021-07-29T11:32:16Z</time>
      </trkpt>
      <trkpt lat="40.695350" lon="-2.976452">
        <ele>828.923</ele>
        <time>2021-07-29T11:33:42Z</time>
      </trkpt>
      <trkpt lat="40.695335" lon="-2.976622">
        <ele>829.424</ele>
        <time>2021-07-29T11:34:07Z</time>
      </trkpt>
      <trkpt lat="40.695197" lon="-2.976578">
        <ele>829.874</ele>
        <time>2021-07-29T11:34:11Z</time>
      </trkpt>
      <trkpt lat="40.694112" lon="-2.974774">
        <ele>832.972</ele>
        <time>2021-07-29T11:34:57Z</time>
      </trkpt>
      <trkpt lat="40.692839" lon="-2.974422">
        <ele>830.537</ele>
        <time>2021-07-29T11:35:21Z</time>
      </trkpt>
      <trkpt lat="40.692451" lon="-2.974802">
        <ele>830.053</ele>
        <time>2021-07-29T11:35:30Z</time>
      </trkpt>
      <trkpt lat="40.691998" lon="-2.974847">
        <ele>829.799</ele>
        <time>2021-07-29T11:35:38Z</time>
      </trkpt>
      <trkpt lat="40.691402" lon="-2.975503">
        <ele>829.707</ele>
        <time>2021-07-29T11:35:51Z</time>
      </trkpt>
      <trkpt lat="40.691220" lon="-2.976137">
        <ele>829.127</ele>
        <time>2021-07-29T11:35:59Z</time>
      </trkpt>
      <trkpt lat="40.690659" lon="-2.976507">
        <ele>828.508</ele>
        <time>2021-07-29T11:36:09Z</time>
      </trkpt>
      <trkpt lat="40.687050" lon="-2.980293">
        <ele>827.716</ele>
        <time>2021-07-29T11:37:30Z</time>
      </trkpt>
      <trkpt lat="40.684694" lon="-2.981870">
        <ele>824.218</ele>
        <time>2021-07-29T11:38:14Z</time>
      </trkpt>
      <trkpt lat="40.682856" lon="-2.982301">
        <ele>822.143</ele>
        <time>2021-07-29T11:38:45Z</time>
      </trkpt>
      <trkpt lat="40.682918" lon="-2.982886">
        <ele>818.584</ele>
        <time>2021-07-29T11:38:55Z</time>
      </trkpt>
      <trkpt lat="40.682689" lon="-2.983246">
        <ele>814.964</ele>
        <time>2021-07-29T11:39:16Z</time>
      </trkpt>
      <trkpt lat="40.682750" lon="-2.983097">
        <ele>815.882</ele>
        <time>2021-07-29T11:40:20Z</time>
      </trkpt>
      <trkpt lat="40.679451" lon="-2.983895">
        <ele>811.877</ele>
        <time>2021-07-29T11:41:12Z</time>
      </trkpt>
      <trkpt lat="40.678220" lon="-2.983527">
        <ele>809.113</ele>
        <time>2021-07-29T11:41:30Z</time>
      </trkpt>
      <trkpt lat="40.676715" lon="-2.983475">
        <ele>807.248</ele>
        <time>2021-07-29T11:41:50Z</time>
      </trkpt>
      <trkpt lat="40.675700" lon="-2.983626">
        <ele>806.561</ele>
        <time>2021-07-29T11:42:04Z</time>
      </trkpt>
      <trkpt lat="40.674823" lon="-2.984299">
        <ele>805.117</ele>
        <time>2021-07-29T11:42:19Z</time>
      </trkpt>
      <trkpt lat="40.673970" lon="-2.985417">
        <ele>803.908</ele>
        <time>2021-07-29T11:42:38Z</time>
      </trkpt>
      <trkpt lat="40.673425" lon="-2.985897">
        <ele>803.581</ele>
        <time>2021-07-29T11:42:48Z</time>
      </trkpt>
      <trkpt lat="40.670795" lon="-2.986891">
        <ele>804.463</ele>
        <time>2021-07-29T11:43:35Z</time>
      </trkpt>
      <trkpt lat="40.670514" lon="-2.986892">
        <ele>804.488</ele>
        <time>2021-07-29T11:43:40Z</time>
      </trkpt>
      <trkpt lat="40.669498" lon="-2.986360">
        <ele>802.869</ele>
        <time>2021-07-29T11:43:59Z</time>
      </trkpt>
      <trkpt lat="40.669248" lon="-2.986353">
        <ele>802.819</ele>
        <time>2021-07-29T11:44:03Z</time>
      </trkpt>
      <trkpt lat="40.666740" lon="-2.987893">
        <ele>800.067</ele>
        <time>2021-07-29T11:44:42Z</time>
      </trkpt>
      <trkpt lat="40.666099" lon="-2.988486">
        <ele>800.792</ele>
        <time>2021-07-29T11:44:59Z</time>
      </trkpt>
      <trkpt lat="40.662552" lon="-2.988234">
        <ele>797.468</ele>
        <time>2021-07-29T11:45:56Z</time>
      </trkpt>
      <trkpt lat="40.662112" lon="-2.988291">
        <ele>797.674</ele>
        <time>2021-07-29T11:46:05Z</time>
      </trkpt>
      <trkpt lat="40.661631" lon="-2.988640">
        <ele>798.456</ele>
        <time>2021-07-29T11:46:16Z</time>
      </trkpt>
      <trkpt lat="40.660944" lon="-2.988885">
        <ele>797.821</ele>
        <time>2021-07-29T11:46:29Z</time>
      </trkpt>
      <trkpt lat="40.659517" lon="-2.988420">
        <ele>797.508</ele>
        <time>2021-07-29T11:46:54Z</time>
      </trkpt>
      <trkpt lat="40.658118" lon="-2.988926">
        <ele>798.084</ele>
        <time>2021-07-29T11:47:22Z</time>
      </trkpt>
      <trkpt lat="40.656714" lon="-2.990091">
        <ele>794.796</ele>
        <time>2021-07-29T11:47:52Z</time>
      </trkpt>
      <trkpt lat="40.657034" lon="-2.991538">
        <ele>798.541</ele>
        <time>2021-07-29T11:48:23Z</time>
      </trkpt>
      <trkpt lat="40.656410" lon="-2.991572">
        <ele>797.662</ele>
        <time>2021-07-29T11:48:35Z</time>
      </trkpt>
      <trkpt lat="40.654887" lon="-2.992255">
        <ele>793.832</ele>
        <time>2021-07-29T11:49:03Z</time>
      </trkpt>
      <trkpt lat="40.653830" lon="-2.992168">
        <ele>794.880</ele>
        <time>2021-07-29T11:49:21Z</time>
      </trkpt>
      <trkpt lat="40.652894" lon="-2.992528">
        <ele>794.445</ele>
        <time>2021-07-29T11:49:38Z</time>
      </trkpt>
      <trkpt lat="40.651417" lon="-2.993958">
        <ele>792.081</ele>
        <time>2021-07-29T11:50:07Z</time>
      </trkpt>
      <trkpt lat="40.650432" lon="-2.995591">
        <ele>790.631</ele>
        <time>2021-07-29T11:50:32Z</time>
      </trkpt>
      <trkpt lat="40.649435" lon="-2.996146">
        <ele>790.461</ele>
        <time>2021-07-29T11:50:50Z</time>
      </trkpt>
      <trkpt lat="40.648708" lon="-2.996289">
        <ele>789.307</ele>
        <time>2021-07-29T11:51:01Z</time>
      </trkpt>
      <trkpt lat="40.648094" lon="-2.997280">
        <ele>788.108</ele>
        <time>2021-07-29T11:51:16Z</time>
      </trkpt>
      <trkpt lat="40.645418" lon="-2.998846">
        <ele>789.380</ele>
        <time>2021-07-29T11:52:05Z</time>
      </trkpt>
      <trkpt lat="40.643794" lon="-2.999106">
        <ele>786.332</ele>
        <time>2021-07-29T11:52:31Z</time>
      </trkpt>
      <trkpt lat="40.641254" lon="-2.998268">
        <ele>782.787</ele>
        <time>2021-07-29T11:53:06Z</time>
      </trkpt>
      <trkpt lat="40.639376" lon="-2.998333">
        <ele>782.998</ele>
        <time>2021-07-29T11:53:38Z</time>
      </trkpt>
      <trkpt lat="40.638950" lon="-2.998718">
        <ele>783.178</ele>
        <time>2021-07-29T11:53:48Z</time>
      </trkpt>
      <trkpt lat="40.638469" lon="-2.998851">
        <ele>784.076</ele>
        <time>2021-07-29T11:53:57Z</time>
      </trkpt>
      <trkpt lat="40.634949" lon="-2.998081">
        <ele>779.991</ele>
        <time>2021-07-29T11:54:53Z</time>
      </trkpt>
      <trkpt lat="40.633954" lon="-2.998644">
        <ele>779.787</ele>
        <time>2021-07-29T11:55:10Z</time>
      </trkpt>
      <trkpt lat="40.633160" lon="-2.998674">
        <ele>780.142</ele>
        <time>2021-07-29T11:55:23Z</time>
      </trkpt>
      <trkpt lat="40.631953" lon="-2.999355">
        <ele>778.222</ele>
        <time>2021-07-29T11:55:46Z</time>
      </trkpt>
      <trkpt lat="40.631093" lon="-3.000606">
        <ele>777.014</ele>
        <time>2021-07-29T11:56:14Z</time>
      </trkpt>
      <trkpt lat="40.630582" lon="-3.001058">
        <ele>777.808</ele>
        <time>2021-07-29T11:56:27Z</time>
      </trkpt>
      <trkpt lat="40.630048" lon="-3.001366">
        <ele>777.331</ele>
        <time>2021-07-29T11:56:38Z</time>
      </trkpt>
      <trkpt lat="40.629205" lon="-3.001478">
        <ele>777.243</ele>
        <time>2021-07-29T11:56:53Z</time>
      </trkpt>
      <trkpt lat="40.628382" lon="-3.002342">
        <ele>777.168</ele>
        <time>2021-07-29T11:57:13Z</time>
      </trkpt>
      <trkpt lat="40.626841" lon="-3.002874">
        <ele>776.129</ele>
        <time>2021-07-29T11:57:42Z</time>
      </trkpt>
      <trkpt lat="40.626128" lon="-3.002686">
        <ele>775.579</ele>
        <time>2021-07-29T11:57:54Z</time>
      </trkpt>
      <trkpt lat="40.625165" lon="-3.002775">
        <ele>775.237</ele>
        <time>2021-07-29T11:58:09Z</time>
      </trkpt>
      <trkpt lat="40.624146" lon="-3.003433">
        <ele>774.732</ele>
        <time>2021-07-29T11:58:28Z</time>
      </trkpt>
      <trkpt lat="40.623839" lon="-3.004026">
        <ele>772.598</ele>
        <time>2021-07-29T11:58:37Z</time>
      </trkpt>
      <trkpt lat="40.623098" lon="-3.007207">
        <ele>773.322</ele>
        <time>2021-07-29T11:59:47Z</time>
      </trkpt>
      <trkpt lat="40.621193" lon="-3.010364">
        <ele>768.262</ele>
        <time>2021-07-29T12:01:18Z</time>
      </trkpt>
      <trkpt lat="40.620422" lon="-3.011128">
        <ele>769.208</ele>
        <time>2021-07-29T12:01:41Z</time>
      </trkpt>
      <trkpt lat="40.619972" lon="-3.011063">
        <ele>769.208</ele>
        <time>2021-07-29T12:01:52Z</time>
      </trkpt>
      <trkpt lat="40.619474" lon="-3.011494">
        <ele>768.029</ele>
        <time>2021-07-29T12:02:02Z</time>
      </trkpt>
      <trkpt lat="40.618879" lon="-3.011632">
        <ele>766.891</ele>
        <time>2021-07-29T12:02:10Z</time>
      </trkpt>
      <trkpt lat="40.617002" lon="-3.012869">
        <ele>764.596</ele>
        <time>2021-07-29T12:02:41Z</time>
      </trkpt>
      <trkpt lat="40.616722" lon="-3.013254">
        <ele>765.377</ele>
        <time>2021-07-29T12:02:50Z</time>
      </trkpt>
      <trkpt lat="40.616352" lon="-3.013384">
        <ele>766.567</ele>
        <time>2021-07-29T12:02:58Z</time>
      </trkpt>
      <trkpt lat="40.615119" lon="-3.013469">
        <ele>763.545</ele>
        <time>2021-07-29T12:03:22Z</time>
      </trkpt>
      <trkpt lat="40.613694" lon="-3.012953">
        <ele>761.090</ele>
        <time>2021-07-29T12:03:44Z</time>
      </trkpt>
      <trkpt lat="40.613003" lon="-3.013294">
        <ele>760.176</ele>
        <time>2021-07-29T12:03:56Z</time>
      </trkpt>
      <trkpt lat="40.612390" lon="-3.013904">
        <ele>759.599</ele>
        <time>2021-07-29T12:04:10Z</time>
      </trkpt>
      <trkpt lat="40.611919" lon="-3.014154">
        <ele>758.607</ele>
        <time>2021-07-29T12:04:18Z</time>
      </trkpt>
      <trkpt lat="40.609942" lon="-3.014133">
        <ele>758.027</ele>
        <time>2021-07-29T12:04:55Z</time>
      </trkpt>
      <trkpt lat="40.609073" lon="-3.013734">
        <ele>756.608</ele>
        <time>2021-07-29T12:05:11Z</time>
      </trkpt>
      <trkpt lat="40.608389" lon="-3.013842">
        <ele>757.736</ele>
        <time>2021-07-29T12:05:24Z</time>
      </trkpt>
      <trkpt lat="40.607834" lon="-3.014198">
        <ele>757.838</ele>
        <time>2021-07-29T12:05:37Z</time>
      </trkpt>
      <trkpt lat="40.606924" lon="-3.015227">
        <ele>756.763</ele>
        <time>2021-07-29T12:06:01Z</time>
      </trkpt>
      <trkpt lat="40.606088" lon="-3.015916">
        <ele>758.394</ele>
        <time>2021-07-29T12:06:21Z</time>
      </trkpt>
      <trkpt lat="40.605218" lon="-3.016193">
        <ele>758.154</ele>
        <time>2021-07-29T12:06:38Z</time>
      </trkpt>
      <trkpt lat="40.603936" lon="-3.017077">
        <ele>759.922</ele>
        <time>2021-07-29T12:07:07Z</time>
      </trkpt>
      <trkpt lat="40.603071" lon="-3.017913">
        <ele>757.467</ele>
        <time>2021-07-29T12:07:46Z</time>
      </trkpt>
      <trkpt lat="40.601894" lon="-3.018656">
        <ele>755.033</ele>
        <time>2021-07-29T12:08:41Z</time>
      </trkpt>
      <trkpt lat="40.600347" lon="-3.020638">
        <ele>753.445</ele>
        <time>2021-07-29T12:09:22Z</time>
      </trkpt>
      <trkpt lat="40.599422" lon="-3.021473">
        <ele>753.547</ele>
        <time>2021-07-29T12:09:41Z</time>
      </trkpt>
      <trkpt lat="40.598485" lon="-3.024200">
        <ele>752.911</ele>
        <time>2021-07-29T12:10:23Z</time>
      </trkpt>
      <trkpt lat="40.598400" lon="-3.024892">
        <ele>752.008</ele>
        <time>2021-07-29T12:10:31Z</time>
      </trkpt>
      <trkpt lat="40.598541" lon="-3.025758">
        <ele>752.191</ele>
        <time>2021-07-29T12:10:42Z</time>
      </trkpt>
      <trkpt lat="40.598380" lon="-3.026986">
        <ele>751.613</ele>
        <time>2021-07-29T12:10:59Z</time>
      </trkpt>
      <trkpt lat="40.597560" lon="-3.029030">
        <ele>751.628</ele>
        <time>2021-07-29T12:11:30Z</time>
      </trkpt>
      <trkpt lat="40.596771" lon="-3.029979">
        <ele>751.219</ele>
        <time>2021-07-29T12:11:49Z</time>
      </trkpt>
      <trkpt lat="40.596698" lon="-3.031003">
        <ele>753.869</ele>
        <time>2021-07-29T12:12:08Z</time>
      </trkpt>
      <trkpt lat="40.596026" lon="-3.033272">
        <ele>751.537</ele>
        <time>2021-07-29T12:12:47Z</time>
      </trkpt>
      <trkpt lat="40.595986" lon="-3.033894">
        <ele>750.092</ele>
        <time>2021-07-29T12:12:57Z</time>
      </trkpt>
      <trkpt lat="40.596184" lon="-3.034520">
        <ele>748.948</ele>
        <time>2021-07-29T12:13:39Z</time>
      </trkpt>
      <trkpt lat="40.597258" lon="-3.036359">
        <ele>751.173</ele>
        <time>2021-07-29T12:14:17Z</time>
      </trkpt>
      <trkpt lat="40.597576" lon="-3.036578">
        <ele>749.885</ele>
        <time>2021-07-29T12:14:22Z</time>
      </trkpt>
      <trkpt lat="40.598465" lon="-3.036666">
        <ele>748.313</ele>
        <time>2021-07-29T12:15:01Z</time>
      </trkpt>
      <trkpt lat="40.599411" lon="-3.037295">
        <ele>748.908</ele>
        <time>2021-07-29T12:15:22Z</time>
      </trkpt>
      <trkpt lat="40.600680" lon="-3.038403">
        <ele>750.744</ele>
        <time>2021-07-29T12:15:51Z</time>
      </trkpt>
      <trkpt lat="40.601469" lon="-3.039711">
        <ele>752.786</ele>
        <time>2021-07-29T12:16:15Z</time>
      </trkpt>
      <trkpt lat="40.602061" lon="-3.040287">
        <ele>754.031</ele>
        <time>2021-07-29T12:16:29Z</time>
      </trkpt>
      <trkpt lat="40.603423" lon="-3.041018">
        <ele>757.162</ele>
        <time>2021-07-29T12:17:00Z</time>
      </trkpt>
      <trkpt lat="40.604363" lon="-3.041070">
        <ele>758.092</ele>
        <time>2021-07-29T12:17:21Z</time>
      </trkpt>
      <trkpt lat="40.605151" lon="-3.040893">
        <ele>761.340</ele>
        <time>2021-07-29T12:17:41Z</time>
      </trkpt>
      <trkpt lat="40.605817" lon="-3.041035">
        <ele>763.065</ele>
        <time>2021-07-29T12:17:58Z</time>
      </trkpt>
      <trkpt lat="40.606140" lon="-3.041279">
        <ele>765.211</ele>
        <time>2021-07-29T12:18:07Z</time>
      </trkpt>
      <trkpt lat="40.606499" lon="-3.041899">
        <ele>764.538</ele>
        <time>2021-07-29T12:18:19Z</time>
      </trkpt>
      <trkpt lat="40.606595" lon="-3.042696">
        <ele>763.170</ele>
        <time>2021-07-29T12:18:30Z</time>
      </trkpt>
      <trkpt lat="40.607107" lon="-3.044004">
        <ele>763.817</ele>
        <time>2021-07-29T12:18:49Z</time>
      </trkpt>
      <trkpt lat="40.607385" lon="-3.045476">
        <ele>764.008</ele>
        <time>2021-07-29T12:19:06Z</time>
      </trkpt>
      <trkpt lat="40.608273" lon="-3.046972">
        <ele>765.540</ele>
        <time>2021-07-29T12:19:32Z</time>
      </trkpt>
      <trkpt lat="40.608817" lon="-3.048981">
        <ele>766.242</ele>
        <time>2021-07-29T12:19:59Z</time>
      </trkpt>
      <trkpt lat="40.609167" lon="-3.049774">
        <ele>766.517</ele>
        <time>2021-07-29T12:20:12Z</time>
      </trkpt>
      <trkpt lat="40.610403" lon="-3.050955">
        <ele>769.718</ele>
        <time>2021-07-29T12:21:03Z</time>
      </trkpt>
      <trkpt lat="40.610709" lon="-3.051491">
        <ele>768.368</ele>
        <time>2021-07-29T12:21:17Z</time>
      </trkpt>
      <trkpt lat="40.610746" lon="-3.051857">
        <ele>767.966</ele>
        <time>2021-07-29T12:21:51Z</time>
      </trkpt>
      <trkpt lat="40.610532" lon="-3.052499">
        <ele>766.811</ele>
        <time>2021-07-29T12:22:08Z</time>
      </trkpt>
      <trkpt lat="40.610612" lon="-3.052697">
        <ele>766.247</ele>
        <time>2021-07-29T12:22:15Z</time>
      </trkpt>
      <trkpt lat="40.610105" lon="-3.053576">
        <ele>764.633</ele>
        <time>2021-07-29T12:23:03Z</time>
      </trkpt>
      <trkpt lat="40.610234" lon="-3.053730">
        <ele>764.423</ele>
        <time>2021-07-29T12:23:10Z</time>
      </trkpt>
      <trkpt lat="40.610329" lon="-3.053662">
        <ele>764.715</ele>
        <time>2021-07-29T12:23:17Z</time>
      </trkpt>
      <trkpt lat="40.610318" lon="-3.053989">
        <ele>764.808</ele>
        <time>2021-07-29T12:23:32Z</time>
      </trkpt>
      <trkpt lat="40.608853" lon="-3.053902">
        <ele>765.980</ele>
        <time>2021-07-29T12:24:25Z</time>
      </trkpt>
      <trkpt lat="40.608638" lon="-3.054265">
        <ele>765.892</ele>
        <time>2021-07-29T12:24:38Z</time>
      </trkpt>
    </trkseg>
  </trk></gpx>