<?xml version="1.0" encoding="UTF-8"?>
<gpx version="1.1" creator="visor-rutas" xmlns="http://www.topografix.com/GPX/1/1">
  <metadata>
    <name>Ruta ejemplo</name>
  </metadata>
  <trk>
    <name>Ruta ejemplo</name>
    <trkseg>
      <trkpt lat="40.4168" lon="-3.7038">
        <ele>0</ele>
      </trkpt>
      <trkpt lat="40.4500" lon="-3.6800">
        <ele>10</ele>
      </trkpt>
      <trkpt lat="40.4700" lon="-3.6600">
        <ele>20</ele>
      </trkpt>
      <trkpt lat="40.4900" lon="-3.6200">
        <ele>15</ele>
      </trkpt>
    </trkseg>
  </trk>
</gpx>
